{
  "type": "FeatureCollection",
  "features": [
    {
      "type": "Feature",
      "properties": {
        "norad_id": 46430,
        "name": "COSMOS 2251 DEB",
        "group": "cosmos-2251-debris",
        "lat": -26.344055806120167,
        "lon": -170.6889490699926,
        "alt_km": 706.2508979982003,
        "timestamp": "2025-12-10T05:46:14.225154+00:00",
        "meta_object_name": "COSMOS 2251 DEB",
        "meta_object_id": "1993-036BWU",
        "meta_epoch": "2025-12-03T09:00:26.936928",
        "meta_mean_motion": 14.51043928,
        "meta_eccentricity": 0.01031866,
        "meta_inclination": 73.9151,
        "meta_ra_of_asc_node": 14.104,
        "meta_arg_of_pericenter": 295.9829,
        "meta_mean_anomaly": 63.073,
        "meta_ephemeris_type": 0,
        "meta_classification_type": "U",
        "meta_norad_cat_id": 46430,
        "meta_element_set_no": 999,
        "meta_rev_at_epoch": 79547,
        "meta_bstar": 0.0030362826,
        "meta_mean_motion_dot": 0.00012872,
        "meta_mean_motion_ddot": 0,
        "tle_line1": "1 46430U 93036BWU 25337.37531177  .00012872  00000+0  30363-2 0  9998",
        "tle_line2": "2 46430  73.9151  14.1040 0103186 295.9829  63.0730 14.51043928795476"
      },
      "geometry": {
        "type": "Point",
        "coordinates": [
          -170.6889490699926,
          -26.344055806120167
        ]
      }
    },
    {
      "type": "Feature",
      "properties": {
        "norad_id": 46432,
        "name": "COSMOS 2251 DEB",
        "group": "cosmos-2251-debris",
        "lat": -63.86951040065143,
        "lon": 79.08806586206937,
        "alt_km": 927.3484330181136,
        "timestamp": "2025-12-10T05:46:14.225164+00:00",
        "meta_object_name": "COSMOS 2251 DEB",
        "meta_object_id": "1993-036BWW",
        "meta_epoch": "2025-12-08T02:57:47.530656",
        "meta_mean_motion": 13.3662099,
        "meta_eccentricity": 0.04738148,
        "meta_inclination": 73.8716,
        "meta_ra_of_asc_node": 118.5673,
        "meta_arg_of_pericenter": 236.8121,
        "meta_mean_anomaly": 306.6861,
        "meta_ephemeris_type": 0,
        "meta_classification_type": "U",
        "meta_norad_cat_id": 46432,
        "meta_element_set_no": 999,
        "meta_rev_at_epoch": 66904,
        "meta_bstar": 0.0017999219,
        "meta_mean_motion_dot": 1.75e-05,
        "meta_mean_motion_ddot": 0,
        "tle_line1": "1 46432U 93036BWW 25342.12346679  .00001750  00000+0  17999-2 0  9993",
        "tle_line2": "2 46432  73.8716 118.5673 0473814 236.8121 306.6861 13.36620990669048"
      },
      "geometry": {
        "type": "Point",
        "coordinates": [
          79.08806586206937,
          -63.86951040065143
        ]
      }
    },
    {
      "type": "Feature",
      "properties": {
        "norad_id": 47045,
        "name": "COSMOS 2251 DEB",
        "group": "cosmos-2251-debris",
        "lat": 46.62397753104446,
        "lon": -43.8414812729758,
        "alt_km": 778.4553120684095,
        "timestamp": "2025-12-10T05:46:14.225174+00:00",
        "meta_object_name": "COSMOS 2251 DEB",
        "meta_object_id": "1993-036BWZ",
        "meta_epoch": "2025-12-08T18:12:30.966336",
        "meta_mean_motion": 14.3889696,
        "meta_eccentricity": 0.00302024,
        "meta_inclination": 74.0568,
        "meta_ra_of_asc_node": 156.4972,
        "meta_arg_of_pericenter": 298.2595,
        "meta_mean_anomaly": 80.2379,
        "meta_ephemeris_type": 0,
        "meta_classification_type": "U",
        "meta_norad_cat_id": 47045,
        "meta_element_set_no": 999,
        "meta_rev_at_epoch": 7748,
        "meta_bstar": 0.00016053941,
        "meta_mean_motion_dot": 4.71e-06,
        "meta_mean_motion_ddot": 0,
        "tle_line1": "1 47045U 93036BWZ 25342.75869174  .00000471  00000+0  16054-3 0  9994",
        "tle_line2": "2 47045  74.0568 156.4972 0030202 298.2595  80.2379 14.38896960 77482"
      },
      "geometry": {
        "type": "Point",
        "coordinates": [
          -43.8414812729758,
          46.62397753104446
        ]
      }
    },
    {
      "type": "Feature",
      "properties": {
        "norad_id": 47048,
        "name": "COSMOS 2251 DEB",
        "group": "cosmos-2251-debris",
        "lat": -58.41797622066647,
        "lon": -63.948140970066206,
        "alt_km": 802.0625853911588,
        "timestamp": "2025-12-10T05:46:14.225184+00:00",
        "meta_object_name": "COSMOS 2251 DEB",
        "meta_object_id": "1993-036BXC",
        "meta_epoch": "2025-12-07T07:15:38.269728",
        "meta_mean_motion": 14.52229932,
        "meta_eccentricity": 0.0133232,
        "meta_inclination": 73.9782,
        "meta_ra_of_asc_node": 329.4737,
        "meta_arg_of_pericenter": 158.8085,
        "meta_mean_anomaly": 264.4528,
        "meta_ephemeris_type": 0,
        "meta_classification_type": "U",
        "meta_norad_cat_id": 47048,
        "meta_element_set_no": 999,
        "meta_rev_at_epoch": 59611,
        "meta_bstar": 0.0016547605,
        "meta_mean_motion_dot": 7.524e-05,
        "meta_mean_motion_ddot": 0,
        "tle_line1": "1 47048U 93036BXC 25341.30252627  .00007524  00000+0  16548-2 0  9999",
        "tle_line2": "2 47048  73.9782 329.4737 0133232 158.8085 264.4528 14.52229932596117"
      },
      "geometry": {
        "type": "Point",
        "coordinates": [
          -63.948140970066206,
          -58.41797622066647
        ]
      }
    },
    {
      "type": "Feature",
      "properties": {
        "norad_id": 47051,
        "name": "COSMOS 2251 DEB",
        "group": "cosmos-2251-debris",
        "lat": -50.839023869682585,
        "lon": 167.1931627429011,
        "alt_km": 765.4955319198225,
        "timestamp": "2025-12-10T05:46:14.225194+00:00",
        "meta_object_name": "COSMOS 2251 DEB",
        "meta_object_id": "1993-036BXF",
        "meta_epoch": "2025-12-07T08:40:13.029888",
        "meta_mean_motion": 13.67092269,
        "meta_eccentricity": 0.03407698,
        "meta_inclination": 74.1016,
        "meta_ra_of_asc_node": 192.3794,
        "meta_arg_of_pericenter": 307.1463,
        "meta_mean_anomaly": 234.2047,
        "meta_ephemeris_type": 0,
        "meta_classification_type": "U",
        "meta_norad_cat_id": 47051,
        "meta_element_set_no": 999,
        "meta_rev_at_epoch": 59864,
        "meta_bstar": 0.0022022876,
        "meta_mean_motion_dot": 2.731e-05,
        "meta_mean_motion_ddot": 0,
        "tle_line1": "1 47051U 93036BXF 25341.36126192  .00002731  00000+0  22023-2 0  9996",
        "tle_line2": "2 47051  74.1016 192.3794 0340769 307.1463 234.2047 13.67092269598645"
      },
      "geometry": {
        "type": "Point",
        "coordinates": [
          167.1931627429011,
          -50.839023869682585
        ]
      }
    },
    {
      "type": "Feature",
      "properties": {
        "norad_id": 47052,
        "name": "COSMOS 2251 DEB",
        "group": "cosmos-2251-debris",
        "lat": 61.298161350194604,
        "lon": 133.42092357539912,
        "alt_km": 742.7826286178833,
        "timestamp": "2025-12-10T05:46:14.225230+00:00",
        "meta_object_name": "COSMOS 2251 DEB",
        "meta_object_id": "1993-036BXG",
        "meta_epoch": "2025-12-05T19:01:13.155168",
        "meta_mean_motion": 14.35464627,
        "meta_eccentricity": 0.00577854,
        "meta_inclination": 74.049,
        "meta_ra_of_asc_node": 353.0607,
        "meta_arg_of_pericenter": 69.2726,
        "meta_mean_anomaly": 108.045,
        "meta_ephemeris_type": 0,
        "meta_classification_type": "U",
        "meta_norad_cat_id": 47052,
        "meta_element_set_no": 999,
        "meta_rev_at_epoch": 61689,
        "meta_bstar": 0.00041416194,
        "meta_mean_motion_dot": 1.188e-05,
        "meta_mean_motion_ddot": 0,
        "tle_line1": "1 47052U 93036BXG 25339.79251337  .00001188  00000+0  41416-3 0  9994",
        "tle_line2": "2 47052  74.0490 353.0607 0057785  69.2726 108.0450 14.35464627616892"
      },
      "geometry": {
        "type": "Point",
        "coordinates": [
          133.42092357539912,
          61.298161350194604
        ]
      }
    },
    {
      "type": "Feature",
      "properties": {
        "norad_id": 47053,
        "name": "COSMOS 2251 DEB",
        "group": "cosmos-2251-debris",
        "lat": -28.7565286621789,
        "lon": 87.12592594733256,
        "alt_km": 1243.9130728474875,
        "timestamp": "2025-12-10T05:46:14.225240+00:00",
        "meta_object_name": "COSMOS 2251 DEB",
        "meta_object_id": "1993-036BXH",
        "meta_epoch": "2025-12-08T01:39:48.955968",
        "meta_mean_motion": 13.59644557,
        "meta_eccentricity": 0.03763354,
        "meta_inclination": 74.0598,
        "meta_ra_of_asc_node": 261.6153,
        "meta_arg_of_pericenter": 76.2137,
        "meta_mean_anomaly": 307.6459,
        "meta_ephemeris_type": 0,
        "meta_classification_type": "U",
        "meta_norad_cat_id": 47053,
        "meta_element_set_no": 999,
        "meta_rev_at_epoch": 28825,
        "meta_bstar": 0.0018736662,
        "meta_mean_motion_dot": 2.199e-05,
        "meta_mean_motion_ddot": 0,
        "tle_line1": "1 47053U 93036BXH 25342.06931662  .00002199  00000+0  18737-2 0  9997",
        "tle_line2": "2 47053  74.0598 261.6153 0376335  76.2137 307.6459 13.59644557288259"
      },
      "geometry": {
        "type": "Point",
        "coordinates": [
          87.12592594733256,
          -28.7565286621789
        ]
      }
    }
  ]
}